start=new Date('2022-06-24T00:00:00.000Z').valueOf();
sats=[{"MEAN_MOTION_DOT":"0.00044898","RA_OF_ASC_NODE":"223.7705","INCLINATION":"52.9936","PERIOD":"91.170","EPOCH":"2022-06-23T14:57:42.604128","RCS_SIZE":"LARGE","MEAN_ELEMENT_THEORY":"SGP4","OBJECT_NAME":"STARLINK-1469","TLE_LINE1":"1 45752U 20038Y   22174.62340977  .00044898  00000-0  24400-3 0  9996","DECAY_DATE":null,"TLE_LINE2":"2 45752  52.9936 223.7705 0011191 346.4217  13.6500 15.79471401117727","ELEMENT_SET_NO":"999","EPHEMERIS_TYPE":"0","CENTER_NAME":"EARTH","LAUNCH_DATE":"2020-06-13","MEAN_MOTION":"15.79471401","SITE":"AFETR","OBJECT_ID":"2020-038Y","GP_ID":"206689880","ARG_OF_PERICENTER":"346.4217","REF_FRAME":"TEME","SEMIMAJOR_AXIS":"6710.074","NORAD_CAT_ID":"45752","ECCENTRICITY":"0.00111910","TIME_SYSTEM":"UTC","COUNTRY_CODE":"US","CLASSIFICATION_TYPE":"U","BSTAR":"0.00024400000000","REV_AT_EPOCH":"11772","FILE":"3500606","OBJECT_TYPE":"PAYLOAD","MEAN_ANOMALY":"13.6500","PERIAPSIS":"324.430","MEAN_MOTION_DDOT":"0.0000000000000","APOAPSIS":"339.449"},{"DECAY_DATE":null,"OBJECT_NAME":"STARLINK-1476","TLE_LINE1":"1 45753U 20038Z   22174.70668170  .00000227  00000-0  34137-4 0  9991","TLE_LINE2":"2 45753  53.0522 179.3796 0002025  61.5155 298.6038 15.06389678113360","LAUNCH_DATE":"2020-06-13","ELEMENT_SET_NO":"999","EPHEMERIS_TYPE":"0","CENTER_NAME":"EARTH","GP_ID":"206689884","ARG_OF_PERICENTER":"61.5155","OBJECT_ID":"2020-038Z","MEAN_MOTION":"15.06389678","SITE":"AFETR","MEAN_MOTION_DOT":"0.00000227","INCLINATION":"53.0522","PERIOD":"95.593","RA_OF_ASC_NODE":"179.3796","MEAN_ELEMENT_THEORY":"SGP4","RCS_SIZE":"LARGE","EPOCH":"2022-06-23T16:57:37.298880","CLASSIFICATION_TYPE":"U","COUNTRY_CODE":"US","FILE":"3500606","BSTAR":"0.00003413700000","REV_AT_EPOCH":"11336","MEAN_ANOMALY":"298.6038","OBJECT_TYPE":"PAYLOAD","MEAN_MOTION_DDOT":"0.0000000000000","PERIAPSIS":"545.843","APOAPSIS":"548.648","NORAD_CAT_ID":"45753","ECCENTRICITY":"0.00020250","REF_FRAME":"TEME","SEMIMAJOR_AXIS":"6925.380","TIME_SYSTEM":"UTC"},{"RA_OF_ASC_NODE":"181.4403","INCLINATION":"53.0533","PERIOD":"95.592","EPOCH":"2022-06-23T05:54:08.248320","RCS_SIZE":"LARGE","MEAN_ELEMENT_THEORY":"SGP4","MEAN_MOTION_DOT":"-0.00000435","ELEMENT_SET_NO":"999","CENTER_NAME":"EARTH","EPHEMERIS_TYPE":"0","LAUNCH_DATE":"2020-06-13","SITE":"AFETR","MEAN_MOTION":"15.06394610","GP_ID":"206682711","OBJECT_ID":"2020-038AA","ARG_OF_PERICENTER":"73.4317","OBJECT_NAME":"STARLINK-1477","TLE_LINE1":"1 45754U 20038AA  22174.24592880 -.00000435  00000-0 -10303-4 0  9997","DECAY_DATE":null,"TLE_LINE2":"2 45754  53.0533 181.4403 0001384  73.4317 286.6824 15.06394610112182","SEMIMAJOR_AXIS":"6925.365","REF_FRAME":"TEME","ECCENTRICITY":"0.00013840","NORAD_CAT_ID":"45754","TIME_SYSTEM":"UTC","MEAN_ANOMALY":"286.6824","OBJECT_TYPE":"PAYLOAD","MEAN_MOTION_DDOT":"0.0000000000000","PERIAPSIS":"546.272","APOAPSIS":"548.189","COUNTRY_CODE":"US","CLASSIFICATION_TYPE":"U","BSTAR":"-0.00001030300000","REV_AT_EPOCH":"11218","FILE":"3500539"},{"FILE":"3500606","REV_AT_EPOCH":"11336","BSTAR":"-0.00004269400000","CLASSIFICATION_TYPE":"U","COUNTRY_CODE":"US","APOAPSIS":"548.234","MEAN_MOTION_DDOT":"0.0000000000000","PERIAPSIS":"546.244","OBJECT_TYPE":"PAYLOAD","MEAN_ANOMALY":"300.9850","TIME_SYSTEM":"UTC","ECCENTRICITY":"0.00014370","NORAD_CAT_ID":"45755","SEMIMAJOR_AXIS":"6925.374","REF_FRAME":"TEME","TLE_LINE2":"2 45755  53.0520 179.2801 0001437  59.1280 300.9850 15.06391623113366","DECAY_DATE":null,"TLE_LINE1":"1 45755U 20038AB  22174.72879099 -.00000917  00000-0 -42694-4 0  9994","OBJECT_NAME":"STARLINK-1478","OBJECT_ID":"2020-038AB","GP_ID":"206689875","ARG_OF_PERICENTER":"59.1280","MEAN_MOTION":"15.06391623","SITE":"AFETR","LAUNCH_DATE":"2020-06-13","CENTER_NAME":"EARTH","EPHEMERIS_TYPE":"0","ELEMENT_SET_NO":"999","MEAN_MOTION_DOT":"-0.00000917","MEAN_ELEMENT_THEORY":"SGP4","EPOCH":"2022-06-23T17:29:27.541536","RCS_SIZE":"LARGE","PERIOD":"95.593","INCLINATION":"53.0520","RA_OF_ASC_NODE":"179.2801"},{"RCS_SIZE":"LARGE","EPOCH":"2022-06-23T17:22:46.349184","MEAN_ELEMENT_THEORY":"SGP4","RA_OF_ASC_NODE":"179.2884","INCLINATION":"53.0546","PERIOD":"95.592","MEAN_MOTION_DOT":"-0.00000577","MEAN_MOTION":"15.06406984","SITE":"AFETR","ARG_OF_PERICENTER":"61.4119","GP_ID":"206689407","OBJECT_ID":"2020-038AC","ELEMENT_SET_NO":"999","EPHEMERIS_TYPE":"0","CENTER_NAME":"EARTH","LAUNCH_DATE":"2020-06-13","TLE_LINE2":"2 45756  53.0546 179.2884 0001604  61.4119 298.7032 15.06406984113362","OBJECT_NAME":"STARLINK-1484","TLE_LINE1":"1 45756U 20038AC  22174.72414756 -.00000577  00000-0 -19828-4 0  9995","DECAY_DATE":null,"TIME_SYSTEM":"UTC","REF_FRAME":"TEME","SEMIMAJOR_AXIS":"6925.327","ECCENTRICITY":"0.00016040","NORAD_CAT_ID":"45756","MEAN_MOTION_DDOT":"0.0000000000000","PERIAPSIS":"546.081","APOAPSIS":"548.303","MEAN_ANOMALY":"298.7032","OBJECT_TYPE":"PAYLOAD","BSTAR":"-0.00001982800000","REV_AT_EPOCH":"11336","FILE":"3500607","COUNTRY_CODE":"US","CLASSIFICATION_TYPE":"U"},{"PERIAPSIS":"545.906","MEAN_MOTION_DDOT":"0.0000000000000","APOAPSIS":"548.546","MEAN_ANOMALY":"308.7680","OBJECT_TYPE":"PAYLOAD","FILE":"3500607","BSTAR":"0.00009186700000","REV_AT_EPOCH":"11336","CLASSIFICATION_TYPE":"U","COUNTRY_CODE":"US","TIME_SYSTEM":"UTC","NORAD_CAT_ID":"45757","ECCENTRICITY":"0.00019060","REF_FRAME":"TEME","SEMIMAJOR_AXIS":"6925.361","GP_ID":"206689395","ARG_OF_PERICENTER":"51.3480","OBJECT_ID":"2020-038AD","MEAN_MOTION":"15.06395851","SITE":"AFETR","LAUNCH_DATE":"2020-06-13","ELEMENT_SET_NO":"999","EPHEMERIS_TYPE":"0","CENTER_NAME":"EARTH","TLE_LINE2":"2 45757  53.0542 179.2124 0001906  51.3480 308.7680 15.06395851113361","DECAY_DATE":null,"OBJECT_NAME":"STARLINK-1486","TLE_LINE1":"1 45757U 20038AD  22174.74353149  .00001087  00000-0  91867-4 0  9994","MEAN_ELEMENT_THEORY":"SGP4","EPOCH":"2022-06-23T17:50:41.120736","RCS_SIZE":"LARGE","INCLINATION":"53.0542","PERIOD":"95.592","RA_OF_ASC_NODE":"179.2124","MEAN_MOTION_DOT":"0.00001087"},{"MEAN_MOTION_DOT":"-0.00000650","INCLINATION":"53.0534","PERIOD":"95.593","RA_OF_ASC_NODE":"179.2386","MEAN_ELEMENT_THEORY":"SGP4","RCS_SIZE":"LARGE","EPOCH":"2022-06-23T17:40:04.323360","DECAY_DATE":null,"OBJECT_NAME":"STARLINK-1487","TLE_LINE1":"1 45758U 20038AE  22174.73616115 -.00000650  00000-0 -24705-4 0  9993","TLE_LINE2":"2 45758  53.0534 179.2386 0001927  55.6731 304.4441 15.06390223113368","LAUNCH_DATE":"2020-06-13","ELEMENT_SET_NO":"999","EPHEMERIS_TYPE":"0","CENTER_NAME":"EARTH","GP_ID":"206689904","ARG_OF_PERICENTER":"55.6731","OBJECT_ID":"2020-038AE","MEAN_MOTION":"15.06390223","SITE":"AFETR","NORAD_CAT_ID":"45758","ECCENTRICITY":"0.00019270","REF_FRAME":"TEME","SEMIMAJOR_AXIS":"6925.379","TIME_SYSTEM":"UTC","CLASSIFICATION_TYPE":"U","COUNTRY_CODE":"US","FILE":"3500607","BSTAR":"-0.00002470500000","REV_AT_EPOCH":"11336","MEAN_ANOMALY":"304.4441","OBJECT_TYPE":"PAYLOAD","MEAN_MOTION_DDOT":"0.0000000000000","PERIAPSIS":"545.909","APOAPSIS":"548.578"},{"NORAD_CAT_ID":"45759","ECCENTRICITY":"0.00018820","SEMIMAJOR_AXIS":"6925.357","REF_FRAME":"TEME","TIME_SYSTEM":"UTC","CLASSIFICATION_TYPE":"U","COUNTRY_CODE":"US","FILE":"3500539","BSTAR":"0.00012042000000","REV_AT_EPOCH":"11219","MEAN_ANOMALY":"314.3844","OBJECT_TYPE":"PAYLOAD","PERIAPSIS":"545.918","MEAN_MOTION_DDOT":"0.0000000000000","APOAPSIS":"548.525","MEAN_MOTION_DOT":"0.00001512","INCLINATION":"53.0552","PERIOD":"95.592","RA_OF_ASC_NODE":"180.8140","MEAN_ELEMENT_THEORY":"SGP4","EPOCH":"2022-06-23T09:15:49.546368","RCS_SIZE":"LARGE","DECAY_DATE":null,"OBJECT_NAME":"STARLINK-1493","TLE_LINE1":"1 45759U 20038AF  22174.38599012  .00001512  00000-0  12042-3 0  9997","TLE_LINE2":"2 45759  53.0552 180.8140 0001882  45.7300 314.3844 15.06397407112195","LAUNCH_DATE":"2020-06-13","ELEMENT_SET_NO":"999","CENTER_NAME":"EARTH","EPHEMERIS_TYPE":"0","GP_ID":"206683463","OBJECT_ID":"2020-038AF","ARG_OF_PERICENTER":"45.7300","SITE":"AFETR","MEAN_MOTION":"15.06397407"},{"OBJECT_TYPE":"PAYLOAD","MEAN_ANOMALY":"304.4583","MEAN_MOTION_DDOT":"0.0000000000000","PERIAPSIS":"546.011","APOAPSIS":"548.481","CLASSIFICATION_TYPE":"U","COUNTRY_CODE":"US","FILE":"3500539","BSTAR":"-0.00003640300000","REV_AT_EPOCH":"11219","NORAD_CAT_ID":"45760","ECCENTRICITY":"0.00017830","SEMIMAJOR_AXIS":"6925.381","REF_FRAME":"TEME","TIME_SYSTEM":"UTC","LAUNCH_DATE":"2020-06-13","ELEMENT_SET_NO":"999","EPHEMERIS_TYPE":"0","CENTER_NAME":"EARTH","OBJECT_ID":"2020-038AG","GP_ID":"206683214","ARG_OF_PERICENTER":"55.6575","MEAN_MOTION":"15.06389410","SITE":"AFETR","DECAY_DATE":null,"OBJECT_NAME":"STARLINK-1494","TLE_LINE1":"1 45760U 20038AG  22174.32333743 -.00000824  00000-0 -36403-4 0  9995","TLE_LINE2":"2 45760  53.0523 181.1028 0001783  55.6575 304.4583 15.06389410112193","INCLINATION":"53.0523","PERIOD":"95.593","RA_OF_ASC_NODE":"181.1028","MEAN_ELEMENT_THEORY":"SGP4","RCS_SIZE":"LARGE","EPOCH":"2022-06-23T07:45:36.353952","MEAN_MOTION_DOT":"-0.00000824"},{"REF_FRAME":"TEME","SEMIMAJOR_AXIS":"6717.894","ECCENTRICITY":"0.00029030","NORAD_CAT_ID":"45761","TIME_SYSTEM":"UTC","COUNTRY_CODE":"US","CLASSIFICATION_TYPE":"U","BSTAR":"-0.00000894960000","REV_AT_EPOCH":"11481","FILE":"3500609","OBJECT_TYPE":"PAYLOAD","MEAN_ANOMALY":"345.0007","MEAN_MOTION_DDOT":"0.0000000000000","PERIAPSIS":"337.809","APOAPSIS":"341.709","MEAN_MOTION_DOT":"-0.00002122","RA_OF_ASC_NODE":"61.5580","INCLINATION":"53.0458","PERIOD":"91.329","EPOCH":"2022-06-23T11:40:20.694432","RCS_SIZE":"LARGE","MEAN_ELEMENT_THEORY":"SGP4","OBJECT_NAME":"STARLINK-1495","TLE_LINE1":"1 45761U 20038AH  22174.48635063 -.00002122  00000-0 -89496-5 0  9997","DECAY_DATE":null,"TLE_LINE2":"2 45761  53.0458  61.5580 0002903  15.1099 345.0007 15.76714433114819","ELEMENT_SET_NO":"999","EPHEMERIS_TYPE":"0","CENTER_NAME":"EARTH","LAUNCH_DATE":"2020-06-13","SITE":"AFETR","MEAN_MOTION":"15.76714433","GP_ID":"206689421","OBJECT_ID":"2020-038AH","ARG_OF_PERICENTER":"15.1099"}];
